[{"OBJECT_NAME":"STARLINK-3391","OBJECT_ID":"2022-005P","EPOCH":"2026-03-09T22:04:33.932352","MEAN_MOTION":15.08844118,"ECCENTRICITY":0.00014312,"INCLINATION":53.2168,"RA_OF_ASC_NODE":287.9774,"ARG_OF_PERICENTER":91.4736,"MEAN_ANOMALY":268.642,"EPHEMERIS_TYPE":0,"CLASSIFICATION_TYPE":"U","NORAD_CAT_ID":51117,"ELEMENT_SET_NO":999,"REV_AT_EPOCH":22891,"BSTAR":-3.1112352e-5,"MEAN_MOTION_DOT":-7.83e-6,"MEAN_MOTION_DDOT":0},{"OBJECT_NAME":"NANOFF A","OBJECT_ID":"2023-185T","EPOCH":"2026-03-09T23:34:34.415328","MEAN_MOTION":15.11542977,"ECCENTRICITY":0.00086783,"INCLINATION":97.5359,"RA_OF_ASC_NODE":137.8345,"ARG_OF_PERICENTER":292.8968,"MEAN_ANOMALY":67.1346,"EPHEMERIS_TYPE":0,"CLASSIFICATION_TYPE":"U","NORAD_CAT_ID":58810,"ELEMENT_SET_NO":999,"REV_AT_EPOCH":11805,"BSTAR":0.00027314844,"MEAN_MOTION_DOT":4.57e-5,"MEAN_MOTION_DDOT":0}]
